[{"OBJECT_ID":"2016-031A","OBJECT_NAME":"THAICOM 8","NORAD_CAT_ID":"41552","OBJECT_TYPE":"PAYLOAD","PERIOD":"1436.093","INCLINATION":"0.0677","APOGEE":"35795.188","PERIGEE":"35777.875","ECCENTRICITY":"0.0002053","MEAN_MOTION":"1.00272016","TLE_LINE1":"1 41552U 16031A   16238.85274488 -.00000149 +00000-0 +00000-0 0  9999","TLE_LINE2":"2 41552 000.0677 052.9549 0002053 037.8073 269.2548 01.00272016000804","LAUNCH_DATE":"2016-05-27","LAUNCH_SITE":"AIR FORCE EASTERN TEST RANGE","OWNER":"THAILAND","ORBIT_TYPE":"Geosynchronous","OPERATIONAL_STATUS":"Operational","satInfo":{"lng":72.12437749834912,"lat":1.3537451399856226,"elevation":-7.251089581367153,"azimuth":242.87562250165087,"range":42483.68149330112,"height":35777.53759589021,"velocity":3.075320226288844},"x":285,"y":-90,"dx":0.9439748250033781,"dy":-2.9268594130878762},{"OBJECT_ID":"2016-035A","OBJECT_NAME":"INTELSAT 31","NORAD_CAT_ID":"41581","OBJECT_TYPE":"PAYLOAD","PERIOD":"1436.103","INCLINATION":"0.0315","APOGEE":"35797.000","PERIGEE":"35776.449","ECCENTRICITY":"0.0002437","MEAN_MOTION":"1.00271329","TLE_LINE1":"1 41581U 16035A   16239.52470808 -.00000180  00000-0  00000+0 0  9998","TLE_LINE2":"2 41581   0.0315 215.3317 0002437  18.6981 194.9947  1.00271329   795","LAUNCH_DATE":"2016-06-09","LAUNCH_SITE":"TYURATAM MISSILE AND SPACE COMPLEX","OWNER":"INTERNATIONAL TELECOMMUNICATIONS SATELLITE ORGANIZATION (INTELSAT)","ORBIT_TYPE":"Geosynchronous","OPERATIONAL_STATUS":"Operational","satInfo":{"lng":-104.42117680114974,"lat":1.1155088919280538,"elevation":-7.483890902890798,"azimuth":59.421176801149706,"range":42512.952356991096,"height":35780.65152576773,"velocity":3.075297076331892},"x":-291,"y":73,"dx":-0.7658961657427101,"dy":2.97839808806615},{"OBJECT_ID":"2016-037A","OBJECT_NAME":"BEIDOU G7","NORAD_CAT_ID":"41586","OBJECT_TYPE":"PAYLOAD","PERIOD":"1436.064","INCLINATION":"1.732","APOGEE":"35801.834","PERIGEE":"35770.084","ECCENTRICITY":"0.0003765","MEAN_MOTION":"1.00274058","TLE_LINE1":"1 41586U 16037A   16238.52689913 -.00000274 +00000-0 +00000-0 0  9998","TLE_LINE2":"2 41586 001.7320 308.3119 0003765 268.7600 091.2952 01.00274058000874","LAUNCH_DATE":"2016-06-12","LAUNCH_SITE":"Xichang Space Center, China","OWNER":"PEOPLES REPUBLIC OF CHINA","ORBIT_TYPE":"Geosynchronous","OPERATIONAL_STATUS":"Operational","satInfo":{"lng":-38.70243746485287,"lat":0.1090870557818886,"elevation":-8.46407949364126,"azimuth":353.7024374648529,"range":42645.03706711365,"height":35802.50099650384,"velocity":3.0740671642029165},"x":-188,"y":-229,"dx":2.399013720045406,"dy":1.9221399795708074},{"OBJECT_ID":"2016-039A","OBJECT_NAME":"BRISAT","NORAD_CAT_ID":"41591","OBJECT_TYPE":"PAYLOAD","PERIOD":"1436.177","INCLINATION":"0.0239","APOGEE":"35797.769","PERIGEE":"35778.584","ECCENTRICITY":"0.0002275","MEAN_MOTION":"1.00266149","TLE_LINE1":"1 41591U 16039A   16238.00206620  .00000000  00000-0  10000-3 0  9999","TLE_LINE2":"2 41591   0.0239 125.6118 0002275  33.1980 326.0873  1.00266149   750","LAUNCH_DATE":"2016-06-18","LAUNCH_SITE":"FRENCH GUIANA","OWNER":"INDONESIA","ORBIT_TYPE":"Geosynchronous","OPERATIONAL_STATUS":"Operational","satInfo":{"lng":-143.6937828732835,"lat":1.7544061182531943,"elevation":-6.852395956313889,"azimuth":98.6937828732835,"range":42467.97974045362,"height":35806.24046076157,"velocity":3.074220419042994},"x":-178,"y":236,"dx":-2.4774036822826404,"dy":1.8202478347393511},{"OBJECT_ID":"2016-039B","OBJECT_NAME":"ECHOSTAR 18","NORAD_CAT_ID":"41592","OBJECT_TYPE":"PAYLOAD","PERIOD":"1436.199","INCLINATION":"0.0123","APOGEE":"35799.420","PERIGEE":"35777.797","ECCENTRICITY":"0.0002564","MEAN_MOTION":"1.00264608","TLE_LINE1":"1 41592U 16039B   16233.27279032 -.00000288 +00000-0 +00000-0 0  9996","TLE_LINE2":"2 41592 000.0123 096.1757 0002564 067.5832 196.2493 01.00264608000654","LAUNCH_DATE":"2016-06-18","LAUNCH_SITE":"FRENCH GUIANA","OWNER":"UNITED STATES OF AMERICA","ORBIT_TYPE":"Geosynchronous","OPERATIONAL_STATUS":"Operational","satInfo":{"lng":-86.27243123177892,"lat":-1.0140228536830114,"elevation":-9.559626753085473,"azimuth":41.272431231778924,"range":42769.302688716736,"height":35803.84070943872,"velocity":3.0740003869211856},"x":-300,"y":-19,"dx":0.19984833828316778,"dy":3.0674971916005163},{"OBJECT_ID":"2016-050A","OBJECT_NAME":"JCSAT 16","NORAD_CAT_ID":"41729","OBJECT_TYPE":"PAYLOAD","PERIOD":"1436.074","INCLINATION":"0.0588","APOGEE":"35795.861","PERIGEE":"35776.465","ECCENTRICITY":"0.00023","MEAN_MOTION":"1.00273332","TLE_LINE1":"1 41729U 16050A   16238.84759331 -.00000228 +00000-0 +00000-0 0  9998","TLE_LINE2":"2 41729 000.0588 284.8956 0002300 245.1885 259.5796 01.00273332000178","LAUNCH_DATE":"2016-08-14","LAUNCH_SITE":"AIR FORCE EASTERN TEST RANGE","OWNER":"JAPAN","ORBIT_TYPE":"Geosynchronous","OPERATIONAL_STATUS":"Operational","satInfo":{"lng":-128.91881371245583,"lat":-0.9727197948841562,"elevation":-9.51798957513157,"azimuth":83.9188137124558,"range":42771.704247399466,"height":35810.83413250599,"velocity":3.074030812703774},"x":-234,"y":184,"dx":-1.9311632371918621,"dy":2.3917094281644817}]